CS1                     
1 49261U 21088B   26068.75173904  .00015722  00000+0  51176-3 0  9998
2 49261  97.3882 132.1684 0014129  78.0335 282.2490 15.31848439245182
STARLINK-33931          
1 64006U 25101N   26068.19438065  .00026621  00000+0  97277-3 0  9994
2 64006  43.0027   0.4019 0001225 290.8123  69.2597 15.27602185 47009
